{
  "type": "FeatureCollection",
  "features": [
    {
      "type": "Feature",
      "properties": {
        "norad_id": 33901,
        "name": "COSMOS 2251 DEB",
        "group": "cosmos-2251-debris",
        "lat": -70.66945312831018,
        "lon": 0.22289387998323518,
        "alt_km": 527.7603524608767,
        "timestamp": "2025-12-09T09:46:48.038489+00:00",
        "meta_object_name": "COSMOS 2251 DEB",
        "meta_object_id": "1993-036DE",
        "meta_epoch": "2025-12-08T15:06:58.938048",
        "meta_mean_motion": 15.15195769,
        "meta_eccentricity": 0.0033232,
        "meta_inclination": 73.7727,
        "meta_ra_of_asc_node": 57.9906,
        "meta_arg_of_pericenter": 190.2001,
        "meta_mean_anomaly": 169.8523,
        "meta_ephemeris_type": 0,
        "meta_classification_type": "U",
        "meta_norad_cat_id": 33901,
        "meta_element_set_no": 999,
        "meta_rev_at_epoch": 89451,
        "meta_bstar": 0.0038712,
        "meta_mean_motion_dot": 0.00074425,
        "meta_mean_motion_ddot": 0,
        "tle_line1": "1 33901U 93036DE  25342.62984882  .00074425  00000+0  38712-2 0  9994",
        "tle_line2": "2 33901  73.7727  57.9906 0033232 190.2001 169.8523 15.15195769894513"
      },
      "geometry": {
        "type": "Point",
        "coordinates": [
          0.22289387998323518,
          -70.66945312831018
        ]
      }
    },
    {
      "type": "Feature",
      "properties": {
        "norad_id": 33905,
        "name": "COSMOS 2251 DEB",
        "group": "cosmos-2251-debris",
        "lat": -55.9203833761709,
        "lon": 168.10577060688863,
        "alt_km": 742.6462433205179,
        "timestamp": "2025-12-09T09:46:48.038500+00:00",
        "meta_object_name": "COSMOS 2251 DEB",
        "meta_object_id": "1993-036DJ",
        "meta_epoch": "2025-12-09T00:34:28.663104",
        "meta_mean_motion": 14.35363738,
        "meta_eccentricity": 0.0059138,
        "meta_inclination": 73.8876,
        "meta_ra_of_asc_node": 323.5214,
        "meta_arg_of_pericenter": 213.7532,
        "meta_mean_anomaly": 204.2684,
        "meta_ephemeris_type": 0,
        "meta_classification_type": "U",
        "meta_norad_cat_id": 33905,
        "meta_element_set_no": 999,
        "meta_rev_at_epoch": 87634,
        "meta_bstar": 0.00090821,
        "meta_mean_motion_dot": 2.631e-05,
        "meta_mean_motion_ddot": 0,
        "tle_line1": "1 33905U 93036DJ  25343.02394286  .00002631  00000+0  90821-3 0  9996",
        "tle_line2": "2 33905  73.8876 323.5214 0059138 213.7532 204.2684 14.35363738876347"
      },
      "geometry": {
        "type": "Point",
        "coordinates": [
          168.10577060688863,
          -55.9203833761709
        ]
      }
    },
    {
      "type": "Feature",
      "properties": {
        "norad_id": 33906,
        "name": "COSMOS 2251 DEB",
        "group": "cosmos-2251-debris",
        "lat": -42.09441775922855,
        "lon": 162.7973192016522,
        "alt_km": 727.0263264734513,
        "timestamp": "2025-12-09T09:46:48.038511+00:00",
        "meta_object_name": "COSMOS 2251 DEB",
        "meta_object_id": "1993-036DK",
        "meta_epoch": "2025-12-09T02:29:16.206720",
        "meta_mean_motion": 14.56983306,
        "meta_eccentricity": 0.0036624,
        "meta_inclination": 74.031,
        "meta_ra_of_asc_node": 328.3822,
        "meta_arg_of_pericenter": 358.448,
        "meta_mean_anomaly": 72.9399,
        "meta_ephemeris_type": 0,
        "meta_classification_type": "U",
        "meta_norad_cat_id": 33906,
        "meta_element_set_no": 999,
        "meta_rev_at_epoch": 87955,
        "meta_bstar": 0.002633,
        "meta_mean_motion_dot": 0.00011934,
        "meta_mean_motion_ddot": 0,
        "tle_line1": "1 33906U 93036DK  25343.10365980  .00011934  00000+0  26330-2 0  9994",
        "tle_line2": "2 33906  74.0310 328.3822 0036624 358.4480  72.9399 14.56983306879557"
      },
      "geometry": {
        "type": "Point",
        "coordinates": [
          162.7973192016522,
          -42.09441775922855
        ]
      }
    },
    {
      "type": "Feature",
      "properties": {
        "norad_id": 33907,
        "name": "COSMOS 2251 DEB",
        "group": "cosmos-2251-debris",
        "lat": 22.428916356167026,
        "lon": -147.0663768349906,
        "alt_km": 748.8581675899432,
        "timestamp": "2025-12-09T09:46:48.038522+00:00",
        "meta_object_name": "COSMOS 2251 DEB",
        "meta_object_id": "1993-036DL",
        "meta_epoch": "2025-12-09T04:20:30.261120",
        "meta_mean_motion": 14.3045464,
        "meta_eccentricity": 0.0112544,
        "meta_inclination": 74.0701,
        "meta_ra_of_asc_node": 40.1151,
        "meta_arg_of_pericenter": 96.683,
        "meta_mean_anomaly": 332.309,
        "meta_ephemeris_type": 0,
        "meta_classification_type": "U",
        "meta_norad_cat_id": 33907,
        "meta_element_set_no": 999,
        "meta_rev_at_epoch": 86529,
        "meta_bstar": 0.0017646,
        "meta_mean_motion_dot": 4.9e-05,
        "meta_mean_motion_ddot": 0,
        "tle_line1": "1 33907U 93036DL  25343.18090580  .00004900  00000+0  17646-2 0  9999",
        "tle_line2": "2 33907  74.0701  40.1151 0112544  96.6830 332.3090 14.30454640865295"
      },
      "geometry": {
        "type": "Point",
        "coordinates": [
          -147.0663768349906,
          22.428916356167026
        ]
      }
    },
    {
      "type": "Feature",
      "properties": {
        "norad_id": 33908,
        "name": "COSMOS 2251 DEB",
        "group": "cosmos-2251-debris",
        "lat": 70.59082474707208,
        "lon": -23.716970615802747,
        "alt_km": 974.0556358737367,
        "timestamp": "2025-12-09T09:46:48.038533+00:00",
        "meta_object_name": "COSMOS 2251 DEB",
        "meta_object_id": "1993-036DM",
        "meta_epoch": "2025-12-09T00:45:12.223008",
        "meta_mean_motion": 14.07295564,
        "meta_eccentricity": 0.0223511,
        "meta_inclination": 73.8372,
        "meta_ra_of_asc_node": 212.3459,
        "meta_arg_of_pericenter": 236.5501,
        "meta_mean_anomaly": 121.409,
        "meta_ephemeris_type": 0,
        "meta_classification_type": "U",
        "meta_norad_cat_id": 33908,
        "meta_element_set_no": 999,
        "meta_rev_at_epoch": 85421,
        "meta_bstar": 0.0021236,
        "meta_mean_motion_dot": 4.452e-05,
        "meta_mean_motion_ddot": 0,
        "tle_line1": "1 33908U 93036DM  25343.03139147  .00004452  00000+0  21236-2 0  9999",
        "tle_line2": "2 33908  73.8372 212.3459 0223511 236.5501 121.4090 14.07295564854217"
      },
      "geometry": {
        "type": "Point",
        "coordinates": [
          -23.716970615802747,
          70.59082474707208
        ]
      }
    },
    {
      "type": "Feature",
      "properties": {
        "norad_id": 33911,
        "name": "COSMOS 2251 DEB",
        "group": "cosmos-2251-debris",
        "lat": 34.82295380918249,
        "lon": -23.10288188283298,
        "alt_km": 634.9382775352497,
        "timestamp": "2025-12-09T09:46:48.038544+00:00",
        "meta_object_name": "COSMOS 2251 DEB",
        "meta_object_id": "1993-036DQ",
        "meta_epoch": "2025-12-08T13:51:04.488192",
        "meta_mean_motion": 14.74672751,
        "meta_eccentricity": 0.0014379,
        "meta_inclination": 74.0898,
        "meta_ra_of_asc_node": 169.9574,
        "meta_arg_of_pericenter": 112.9115,
        "meta_mean_anomaly": 304.0239,
        "meta_ephemeris_type": 0,
        "meta_classification_type": "U",
        "meta_norad_cat_id": 33911,
        "meta_element_set_no": 999,
        "meta_rev_at_epoch": 88583,
        "meta_bstar": 0.0025536,
        "meta_mean_motion_dot": 0.0001709,
        "meta_mean_motion_ddot": 0,
        "tle_line1": "1 33911U 93036DQ  25342.57713528  .00017090  00000+0  25536-2 0  9991",
        "tle_line2": "2 33911  74.0898 169.9574 0014379 112.9115 304.0239 14.74672751885837"
      },
      "geometry": {
        "type": "Point",
        "coordinates": [
          -23.10288188283298,
          34.82295380918249
        ]
      }
    },
    {
      "type": "Feature",
      "properties": {
        "norad_id": 33912,
        "name": "COSMOS 2251 DEB",
        "group": "cosmos-2251-debris",
        "lat": -52.37875761939369,
        "lon": 174.19475818054278,
        "alt_km": 719.0810719784049,
        "timestamp": "2025-12-09T09:46:48.038554+00:00",
        "meta_object_name": "COSMOS 2251 DEB",
        "meta_object_id": "1993-036DR",
        "meta_epoch": "2025-12-09T00:48:39.290112",
        "meta_mean_motion": 14.51861783,
        "meta_eccentricity": 0.0011526,
        "meta_inclination": 74.0333,
        "meta_ra_of_asc_node": 196.7059,
        "meta_arg_of_pericenter": 275.5514,
        "meta_mean_anomaly": 236.4904,
        "meta_ephemeris_type": 0,
        "meta_classification_type": "U",
        "meta_norad_cat_id": 33912,
        "meta_element_set_no": 999,
        "meta_rev_at_epoch": 88379,
        "meta_bstar": 0.00082884,
        "meta_mean_motion_dot": 3.315e-05,
        "meta_mean_motion_ddot": 0,
        "tle_line1": "1 33912U 93036DR  25343.03378808  .00003315  00000+0  82884-3 0  9997",
        "tle_line2": "2 33912  74.0333 196.7059 0011526 275.5514 236.4904 14.51861783883798"
      },
      "geometry": {
        "type": "Point",
        "coordinates": [
          174.19475818054278,
          -52.37875761939369
        ]
      }
    }
  ]
}